202103170030 METAR LKMT 170030Z 13500KT 9999 -SN OVC011 02/01 Q1015 NOSIG=
202103170000 METAR LKMT 170000Z 34009KT 9999 -SHSN OVC011 02/00 Q1015 NOSIG=
202103162344 SPECI LKMT 162344Z 35009KT 6000 -SHSN OVC011 02/00 Q1015 RMK REG QNH 1013=
202103162330 METAR LKMT 162330Z 34011KT 9999 OVC012 02/01 Q1015 NOSIG=
202103162300 METAR LKMT 162300Z 34010KT 9999 OVC012 02/01 Q1015 NOSIG=
202103162230 METAR LKMT 162230Z 34011KT 9999 OVC011 02/01 Q1015 NOSIG=
202103162200 METAR LKMT 162200Z 34012KT 9999 OVC011 02/01 Q1015 NOSIG=
202103162130 METAR LKMT 162130Z 35012KT 9999 -RA OVC010 02/01 Q1015 NOSIG=
202103162100 METAR LKMT 162100Z 34013KT 9999 -RA OVC011 02/01 Q1015 NOSIG=
202103162030 METAR LKMT 162030Z 35009KT 9999 -RASN OVC013 02/01 Q1015 NOSIG=
202103162000 METAR LKMT 162000Z 34009KT 310V010 9999 -RA OVC012 02/00 Q1015 NOSIG=
202103161930 METAR LKMT 161930Z 34011KT 320V020 9999 -RA BKN012 OVC020 02/01 Q1015 NOSIG=
202103161900 METAR LKMT 161900Z 35012KT 9999 BKN013 BKN023 02/01 Q1015 NOSIG=
202103161830 METAR LKMT 161830Z 33010KT 9999 BKN014 BKN026 03/00 Q1014 NOSIG=
202103161800 METAR LKMT 161800Z 33010KT 9999 SCT016 BKN030 03/00 Q1014 NOSIG=
202103161730 METAR LKMT 161730Z 33009KT 9999 -RA SCT016 BKN041 03/01 Q1014 NOSIG=
202103161700 METAR LKMT 161700Z 33013KT 9999 -SHRA SCT016 BKN040 03/01 Q1014 NOSIG=
202103161630 METAR LKMT 161630Z 33012KT 9999 BKN020 04/01 Q1013 NOSIG=
202103161600 METAR LKMT 161600Z 32012KT 9999 BKN018 04/01 Q1013 NOSIG=
202103161530 METAR LKMT 161530Z 33012KT 9999 BKN029 04/01 Q1013 NOSIG=
202103161500 METAR LKMT 161500Z 33009KT 9999 SCT018 BKN030 04/01 Q1013 NOSIG=
202103161430 METAR LKMT 161430Z 34011KT 310V010 9999 BKN018 04/02 Q1012 NOSIG=
202103161400 METAR LKMT 161400Z 34007KT 9999 -SHRA SCT014 BKN023 04/03 Q1012 NOSIG=
202103161330 METAR LKMT 161330Z 35015KT 9999 -SHRA BKN019 05/01 Q1012 NOSIG=
202103161300 METAR LKMT 161300Z 36008KT 9999 FEW013 BKN030 05/02 Q1011 TEMPO 4500 SHRA=
202103161230 METAR LKMT 161230Z 33009KT 9999 FEW024 BKN047 06/02 Q1011 NOSIG=
202103161200 METAR LKMT 161200Z VRB02KT 9999 SCT021 05/03 Q1011 NOSIG=
202103161130 METAR LKMT 161130Z 33005KT 240V030 9999 FEW002 BKN013 04/02 Q1012 NOSIG=
202103161104 SPECI LKMT 161104Z 33007KT 290V030 6000 SHRAGS SCT013 BKN033 03/01 Q1012 RMK REG QNH 1009=
202103161100 METAR LKMT 161100Z 05003KT 7000 SHRA SCT013 BKN033 05/02 Q1012 NOSIG=
202103161044 SPECI LKMT 161044Z 06005KT 010V090 9999 -SHRA SCT019 BKN033 05/02 Q1011 RMK REG QNH 1009=
202103161030 METAR LKMT 161030Z 24005KT 190V360 9999 SCT014 BKN037 06/03 Q1011 TEMPO 4000 SHRA BECMG 34010KT=
202103161000 METAR LKMT 161000Z 22003KT 150V310 9999 FEW010 BKN023 05/02 Q1011 TEMPO 4000 SHRA BECMG 34010KT=
202103160930 METAR LKMT 160930Z 21004KT 170V250 7000 -SHRA FEW010 BKN022 04/02 Q1011 NOSIG=
202103160919 SPECI LKMT 160919Z 20004KT 170V230 7000 -SHRA FEW009 BKN022 04/02 Q1011 RMK REG QNH 1009=
202103160900 METAR LKMT 160900Z 22005KT 8000 VCSH FEW008 BKN028 04/02 Q1011 TEMPO 3500 SHRASN=
202103160830 METAR LKMT 160830Z 20004KT 150V240 8000 FEW006 BKN033 03/02 Q1011 NOSIG=
202103160800 METAR LKMT 160800Z 23006KT 6000 FEW004 SCT032 02/01 Q1011 NOSIG=
202103160730 METAR LKMT 160730Z 21003KT 6000 FEW016 SCT029 BKN046 01/01 Q1011 NOSIG=
202103160722 SPECI LKMT 160722Z 21003KT 6000 SCT017 BKN024 01/01 Q1011 RMK REG QNH 1008=
202103160712 SPECI LKMT 160712Z 22004KT 3500 -SHSN FEW011 SCT015 BKN028 01/00 Q1011 RMK REG QNH 1008=
202103160700 METAR LKMT 160700Z 21004KT 7000 VCSH FEW010 SCT026 BKN044 00/M00 Q1010 TEMPO 2000 SHSN=
202103160650 SPECI LKMT 160650Z 21004KT 6000 -SHSN SCT009 BKN029 00/M00 Q1010 RMK REG QNH 1008=
202103160640 SPECI LKMT 160640Z 24004KT 1300 R22/P2000N R04/2000U SHSN SCT009 OVC021 00/M00 Q1010 RMK REG QNH 1008=
202103160630 METAR LKMT 160630Z 25004KT 1800 SHSN FEW015 OVC022 01/M00 Q1010 TEMPO NSW=
202103160625 SPECI LKMT 160625Z 25004KT 3500 SHSN FEW015 OVC018 01/M00 Q1010 RMK REG QNH 1008=
202103160618 SPECI LKMT 160618Z 23003KT 7000 -SHSN BKN020 01/M01 Q1010 RMK REG QNH 1008=
202103160600 METAR LKMT 160600Z 25004KT 8000 VCSH BKN020 00/M01 Q1010 TEMPO SHRASN=
202103160530 METAR LKMT 160530Z 21003KT 9999 SCT025 BKN042 00/M01 Q1009 NOSIG=
202103160500 METAR LKMT 160500Z 23003KT 9999 FEW017 OVC038 M00/M01 Q1009 NOSIG=
202103160430 METAR LKMT 160430Z 22004KT 9999 BKN047 M01/M02 Q1009 NOSIG=
202103160400 METAR LKMT 160400Z 26003KT 9999 FEW047 M01/M02 Q1009 NOSIG=
202103160330 METAR LKMT 160330Z 19002KT CAVOK M01/M02 Q1009 NOSIG=
202103160300 METAR LKMT 160300Z 20004KT CAVOK M00/M02 Q1008 NOSIG=
202103160230 METAR LKMT 160230Z 26005KT CAVOK M01/M03 Q1008 NOSIG=
202103160200 METAR LKMT 160200Z 18005KT CAVOK M01/M03 Q1008 NOSIG=
202103160130 METAR LKMT 160130Z 20004KT CAVOK M01/M03 Q1008 NOSIG=
202103160100 METAR LKMT 160100Z 22003KT CAVOK M01/M03 Q1008 NOSIG=
202103160030 METAR LKMT 160030Z 25003KT CAVOK M02/M03 Q1008 NOSIG=
202103160000 METAR LKMT 160000Z 23003KT 200V260 CAVOK M02/M03 Q1008 NOSIG=
202103152330 METAR LKMT 152330Z 23004KT CAVOK M03/M05 Q1008 NOSIG=
202103152300 METAR LKMT 152300Z 21003KT CAVOK M00/M03 Q1008 NOSIG=
202103152230 METAR LKMT 152230Z 24005KT CAVOK M01/M03 Q1008 NOSIG=
202103152200 METAR LKMT 152200Z 21005KT CAVOK 00/M03 Q1008 NOSIG=
202103152130 METAR LKMT 152130Z 22008KT CAVOK M01/M03 Q1008 NOSIG=
202103152100 METAR LKMT 152100Z VRB04KT CAVOK 01/M03 Q1007 NOSIG=
202103152030 METAR LKMT 152030Z VRB02KT CAVOK 01/M03 Q1008 NOSIG=
202103152000 METAR LKMT 152000Z 20003KT CAVOK 01/M03 Q1008 NOSIG=
202103151930 METAR LKMT 151930Z VRB02KT CAVOK 01/M02 Q1007 NOSIG=
202103151900 METAR LKMT 151900Z VRB01KT CAVOK 01/M03 Q1007 NOSIG=
202103151830 METAR LKMT 151830Z VRB02KT CAVOK 04/M02 Q1007 NOSIG=
202103151800 METAR LKMT 151800Z 14001KT CAVOK 04/M03 Q1007 NOSIG=
202103151730 METAR LKMT 151730Z 00000KT CAVOK 05/M03 Q1007 NOSIG=
202103151700 METAR LKMT 151700Z 31002KT CAVOK 06/M02 Q1007 NOSIG=
202103151630 METAR LKMT 151630Z 31003KT CAVOK 07/M02 Q1007 NOSIG=
202103151600 METAR LKMT 151600Z 28004KT CAVOK 07/M02 Q1007 NOSIG=
202103151530 METAR LKMT 151530Z 26005KT CAVOK 08/M03 Q1007 NOSIG=
202103151500 METAR LKMT 151500Z 29004KT 260V320 CAVOK 08/M03 Q1007 NOSIG=
202103151430 METAR LKMT 151430Z VRB02KT CAVOK 08/M04 Q1007 NOSIG=
202103151400 METAR LKMT 151400Z VRB02KT CAVOK 08/M04 Q1007 NOSIG=
202103151330 METAR LKMT 151330Z VRB01KT CAVOK 08/M04 Q1007 NOSIG=
202103151300 METAR LKMT 151300Z 01003KT 290V080 CAVOK 08/M04 Q1007 NOSIG=
202103151230 METAR LKMT 151230Z VRB03KT CAVOK 08/M04 Q1007 NOSIG=
202103151200 METAR LKMT 151200Z 13003KT 080V180 CAVOK 08/M03 Q1007 NOSIG=
202103151130 METAR LKMT 151130Z 12003KT 050V190 9999 FEW042 08/M02 Q1007 NOSIG=
202103151100 METAR LKMT 151100Z VRB02KT 9999 FEW041 07/M02 Q1008 NOSIG=
202103151030 METAR LKMT 151030Z VRB02KT 9999 BKN039 06/M03 Q1008 NOSIG=
202103151000 METAR LKMT 151000Z 16003KT 020V190 9999 SCT040 BKN047 07/M04 Q1008 NOSIG=
202103150930 METAR LKMT 150930Z 08003KT 010V160 9999 FEW032 07/M02 Q1008 NOSIG=
202103150900 METAR LKMT 150900Z VRB03KT 9999 FEW033 07/M01 Q1008 NOSIG=
202103150830 METAR LKMT 150830Z 23004KT 190V260 9999 FEW026 06/M01 Q1009 NOSIG=
202103150800 METAR LKMT 150800Z 23004KT 200V260 CAVOK 05/M00 Q1009 NOSIG=
202103150730 METAR LKMT 150730Z 23006KT 190V270 CAVOK 04/00 Q1009 NOSIG=
202103150700 METAR LKMT 150700Z 22006KT CAVOK 04/01 Q1009 NOSIG=
202103150630 METAR LKMT 150630Z 25004KT CAVOK 03/01 Q1009 NOSIG=
202103150600 METAR LKMT 150600Z 20004KT CAVOK 03/00 Q1009 NOSIG=
202103150530 METAR LKMT 150530Z 22004KT 9999 FEW040 02/00 Q1009 NOSIG=
202103150500 METAR LKMT 150500Z 24004KT 9999 SCT039 02/00 Q1009 NOSIG=
202103150430 METAR LKMT 150430Z 23003KT 9999 SCT040 BKN045 02/00 Q1009 NOSIG=
202103150400 METAR LKMT 150400Z 23004KT 9999 OVC037 02/00 Q1009 NOSIG=
202103150330 METAR LKMT 150330Z 19003KT 9999 BKN033 BKN047 03/00 Q1009 NOSIG=
202103150300 METAR LKMT 150300Z 20004KT 9999 OVC033 03/00 Q1008 NOSIG=
202103150230 METAR LKMT 150230Z 21005KT 9999 BKN032 OVC049 03/00 Q1008 NOSIG=
202103150200 METAR LKMT 150200Z 21006KT 9999 BKN031 OVC047 03/00 Q1008 NOSIG=
202103150130 METAR LKMT 150130Z 22006KT 9999 SCT035 BKN044 03/00 Q1009 NOSIG=
202103150100 METAR LKMT 150100Z 22006KT 9999 BKN035 03/00 Q1009 NOSIG=
202103150030 METAR LKMT 150030Z 21003KT 9999 BKN037 01/M00 Q1009 NOSIG=
202103150000 METAR LKMT 150000Z 21002KT 9999 BKN037 01/M01 Q1009 NOSIG=
202103142330 METAR LKMT 142330Z 22005KT 9999 FEW038 SCT044 02/M01 Q1009 NOSIG=
202103142300 METAR LKMT 142300Z 21005KT 9999 FEW047 03/M01 Q1009 NOSIG=
202103142230 METAR LKMT 142230Z 20005KT CAVOK 03/M01 Q1009 NOSIG=
202103142200 METAR LKMT 142200Z 20005KT CAVOK 03/M00 Q1009 NOSIG=
202103142130 METAR LKMT 142130Z 22005KT CAVOK 03/M01 Q1009 NOSIG=
202103142100 METAR LKMT 142100Z 22005KT CAVOK 03/M01 Q1009 NOSIG=
202103142030 METAR LKMT 142030Z 22005KT CAVOK 03/M01 Q1009 NOSIG=
202103142000 METAR LKMT 142000Z 22006KT CAVOK 03/M01 Q1009 NOSIG=
202103141930 METAR LKMT 141930Z 25005KT 230V290 CAVOK 02/M01 Q1009 NOSIG=
202103141900 METAR LKMT 141900Z 23005KT CAVOK 03/M02 Q1008 NOSIG=
202103141830 METAR LKMT 141830Z 27006KT CAVOK 04/M01 Q1008 NOSIG=
202103141800 METAR LKMT 141800Z 27008KT CAVOK 05/M01 Q1008 NOSIG=
202103141730 METAR LKMT 141730Z 28007KT CAVOK 06/M01 Q1008 NOSIG=
202103141700 METAR LKMT 141700Z 28007KT CAVOK 06/M01 Q1007 NOSIG=
202103141630 METAR LKMT 141630Z 27006KT CAVOK 07/M01 Q1007 NOSIG=
202103141600 METAR LKMT 141600Z 26007KT CAVOK 08/M01 Q1007 NOSIG=
202103141530 METAR LKMT 141530Z 25009KT CAVOK 08/M01 Q1007 NOSIG=
202103141500 METAR LKMT 141500Z 25010KT CAVOK 08/M02 Q1006 NOSIG=
202103141430 METAR LKMT 141430Z 25010KT CAVOK 08/M02 Q1006 NOSIG=
202103141400 METAR LKMT 141400Z 25009KT CAVOK 09/M02 Q1006 NOSIG=
202103141330 METAR LKMT 141330Z 27013KT CAVOK 09/M02 Q1006 NOSIG=
202103141300 METAR LKMT 141300Z 26014KT CAVOK 09/M02 Q1006 NOSIG=
202103141230 METAR LKMT 141230Z 27014KT 230V290 9999 SCT046 09/M02 Q1005 NOSIG=
202103141200 METAR LKMT 141200Z 24010KT 9999 BKN046 09/M01 Q1005 NOSIG=
202103141130 METAR LKMT 141130Z 26013KT 9999 SCT043 09/M01 Q1005 NOSIG=
202103141100 METAR LKMT 141100Z 25011KT 9999 SCT043 09/M00 Q1005 NOSIG=
202103141030 METAR LKMT 141030Z 24008KT 200V280 9999 BKN036 08/01 Q1005 NOSIG=
202103141000 METAR LKMT 141000Z 24010KT 9999 BKN033 08/02 Q1005 NOSIG=
202103140930 METAR LKMT 140930Z 23014KT 9999 BKN030 08/02 Q1005 NOSIG=
202103140900 METAR LKMT 140900Z 23013KT 9999 SCT030 08/02 Q1004 NOSIG=
202103140830 METAR LKMT 140830Z 23015KT 9999 BKN026 07/02 Q1004 NOSIG=
202103140800 METAR LKMT 140800Z 23016KT 9999 FEW026 07/02 Q1004 NOSIG=
202103140730 METAR LKMT 140730Z 21010KT CAVOK 07/02 Q1003 NOSIG=
202103140700 METAR LKMT 140700Z 21014KT CAVOK 06/02 Q1003 NOSIG=
202103140630 METAR LKMT 140630Z 20012KT 9999 FEW040 06/01 Q1002 NOSIG=
202103140600 METAR LKMT 140600Z 20010KT CAVOK 05/01 Q1002 NOSIG=
202103140530 METAR LKMT 140530Z 21014KT CAVOK 06/01 Q1002 NOSIG=
202103140500 METAR LKMT 140500Z 21012KT CAVOK 06/01 Q1002 NOSIG=
202103140430 METAR LKMT 140430Z 21014KT CAVOK 06/01 Q1002 NOSIG=
202103140400 METAR LKMT 140400Z 21012KT CAVOK 06/01 Q1003 NOSIG=
202103140330 METAR LKMT 140330Z 20008KT CAVOK 05/02 Q1002 NOSIG=
202103140300 METAR LKMT 140300Z 21010KT CAVOK 06/02 Q1002 NOSIG=
202103140230 METAR LKMT 140230Z 20014KT CAVOK 06/01 Q1002 NOSIG=
202103140200 METAR LKMT 140200Z 20011KT CAVOK 06/01 Q1002 NOSIG=
202103140130 METAR LKMT 140130Z 20014KT CAVOK 06/01 Q1002 NOSIG=
202103140100 METAR LKMT 140100Z 22017KT CAVOK 07/01 Q1003 NOSIG=
202103140030 METAR LKMT 140030Z 22013KT CAVOK 06/02 Q1003 NOSIG=
202103140000 METAR LKMT 140000Z 21016KT 9999 FEW015 06/02 Q1003 NOSIG=
202103132330 METAR LKMT 132330Z 23018KT 9999 -RA FEW015 06/02 Q1003 NOSIG=
202103132300 METAR LKMT 132300Z 24020KT CAVOK 08/03 Q1003 NOSIG=
202103132246 SPECI LKMT 132246Z 23015G28KT 9999 -RA FEW045 08/04 Q1003 RMK REG QNH 0997=
202103132230 METAR LKMT 132230Z 21014KT 9999 -RA FEW045 09/04 Q1003 NOSIG=
202103132200 METAR LKMT 132200Z 21012KT 9999 -RA FEW044 09/04 Q1002 NOSIG=
202103132130 METAR LKMT 132130Z 21012KT 9999 -RA SCT018 BKN023 OVC035 09/04 Q1003 NOSIG=
202103132100 METAR LKMT 132100Z 22017G27KT 9999 SCT018 BKN023 OVC035 09/04 Q1003 NOSIG=
202103132030 METAR LKMT 132030Z 21014KT 9999 -RA OVC046 10/03 Q1003 NOSIG=
202103132000 METAR LKMT 132000Z 22013KT 9999 -RA FEW036 09/04 Q1003 NOSIG=
202103131930 METAR LKMT 131930Z 22013KT 9999 FEW036 09/03 Q1003 NOSIG=
202103131900 METAR LKMT 131900Z 23013KT 9999 FEW036 09/03 Q1003 NOSIG=
202103131830 METAR LKMT 131830Z 23015KT 9999 -RA FEW022 OVC040 09/03 Q1003 NOSIG=
202103131803 SPECI LKMT 131803Z 22016G33KT 190V250 9999 SCT040 11/02 Q1003 RMK REG QNH 0997=
202103131800 METAR LKMT 131800Z 23012KT 190V260 9999 FEW039 10/02 Q1003 NOSIG=
202103131730 METAR LKMT 131730Z 19014KT 150V220 CAVOK 11/01 Q1002 NOSIG=
202103131700 METAR LKMT 131700Z 19014G25KT CAVOK 11/01 Q1001 NOSIG=
202103131637 SPECI LKMT 131637Z 19017G27KT CAVOK 10/01 Q1001 RMK REG QNH 0996=
202103131630 METAR LKMT 131630Z 19018KT CAVOK 11/01 Q1001 NOSIG=
202103131600 METAR LKMT 131600Z 18016KT CAVOK 11/00 Q1002 NOSIG=
202103131530 METAR LKMT 131530Z 19013KT CAVOK 11/M01 Q1002 NOSIG=
202103131500 METAR LKMT 131500Z 19014G25KT 160V220 CAVOK 12/M01 Q1003 NOSIG=
202103131446 SPECI LKMT 131446Z 20015G25KT 150V220 CAVOK 12/M01 Q1003 RMK REG QNH 0996=
202103131430 METAR LKMT 131430Z 19016KT 160V220 CAVOK 12/M01 Q1004 TEMPO 19016G26KT=
202103131400 METAR LKMT 131400Z 21018G28KT CAVOK 12/M02 Q1004 NOSIG=
202103131330 METAR LKMT 131330Z 20021KT CAVOK 13/M00 Q1004 NOSIG=
202103131309 SPECI LKMT 131309Z 21023G33KT 9999 FEW025 12/M01 Q1005 RMK REG QNH 0996=
202103131300 METAR LKMT 131300Z 21024KT 9999 FEW023 11/M01 Q1005 TEMPO 21024G35KT=
202103131230 METAR LKMT 131230Z 21019KT 9999 FEW023 SCT040 11/M01 Q1006 NOSIG=
202103131200 METAR LKMT 131200Z 21017KT 9999 FEW035 11/M01 Q1006 NOSIG=
202103131130 METAR LKMT 131130Z 21018KT 9999 FEW034 11/M00 Q1007 NOSIG=
202103131111 SPECI LKMT 131111Z 21021G31KT CAVOK 11/M00 Q1007 RMK REG QNH 0997=
202103131100 METAR LKMT 131100Z 21025KT CAVOK 11/M00 Q1007 TEMPO 21023G33KT=
202103131030 METAR LKMT 131030Z 21021G31KT CAVOK 10/M00 Q1007 NOSIG=
202103131016 SPECI LKMT 131016Z 22021G32KT CAVOK 10/M01 Q1007 RMK REG QNH 0997=
202103131000 METAR LKMT 131000Z 22017KT CAVOK 10/00 Q1008 TEMPO 22018G28KT=
202103130930 METAR LKMT 130930Z 20015KT CAVOK 08/M00 Q1008 NOSIG=
202103130900 METAR LKMT 130900Z 21014KT CAVOK 08/M00 Q1008 NOSIG=
202103130830 METAR LKMT 130830Z 21015KT CAVOK 07/M00 Q1009 NOSIG=
202103130800 METAR LKMT 130800Z 22017KT CAVOK 07/M00 Q1009 NOSIG=
202103130730 METAR LKMT 130730Z 22010KT CAVOK 06/M00 Q1009 NOSIG=
202103130700 METAR LKMT 130700Z 22010KT 9999 FEW046 05/M00 Q1009 NOSIG=
202103130630 METAR LKMT 130630Z 24011KT 9999 FEW046 04/M01 Q1008 NOSIG=
202103130600 METAR LKMT 130600Z 23011KT CAVOK 04/M01 Q1008 NOSIG=
202103130530 METAR LKMT 130530Z 22014KT CAVOK 05/M01 Q1008 NOSIG=
202103130500 METAR LKMT 130500Z 23011KT 9999 FEW028 BKN039 03/M01 Q1008 NOSIG=
202103130430 METAR LKMT 130430Z 25009KT CAVOK 02/M02 Q1008 NOSIG=
202103130400 METAR LKMT 130400Z 22005KT 190V260 CAVOK 06/M02 Q1008 NOSIG=
202103130330 METAR LKMT 130330Z 22009KT CAVOK 03/M02 Q1008 NOSIG=
202103130300 METAR LKMT 130300Z 21010KT CAVOK 04/M02 Q1008 NOSIG=
202103130230 METAR LKMT 130230Z 21009KT CAVOK 04/M02 Q1008 NOSIG=
202103130200 METAR LKMT 130200Z 23006KT CAVOK 02/M02 Q1009 NOSIG=
202103130130 METAR LKMT 130130Z 26006KT CAVOK 02/M02 Q1009 NOSIG=
202103130100 METAR LKMT 130100Z 21007KT CAVOK 03/M03 Q1009 NOSIG=
202103130030 METAR LKMT 130030Z 22005KT CAVOK 02/M02 Q1009 NOSIG=
202103130000 METAR LKMT 130000Z 23005KT CAVOK 02/M03 Q1010 NOSIG=
202103122330 METAR LKMT 122330Z 09002KT CAVOK 00/M03 Q1010 NOSIG=
202103122300 METAR LKMT 122300Z 27006KT CAVOK 01/M02 Q1010 NOSIG=
202103122230 METAR LKMT 122230Z 25005KT CAVOK 00/M03 Q1010 NOSIG=
202103122200 METAR LKMT 122200Z VRB02KT CAVOK 02/M03 Q1010 NOSIG=
202103122130 METAR LKMT 122130Z 00000KT CAVOK 02/M03 Q1010 NOSIG=
202103122100 METAR LKMT 122100Z 21007KT CAVOK 05/M03 Q1010 NOSIG=
202103122030 METAR LKMT 122030Z 27004KT 200V310 CAVOK 02/M02 Q1010 NOSIG=
202103122000 METAR LKMT 122000Z 22007KT CAVOK 02/M03 Q1010 NOSIG=
202103121930 METAR LKMT 121930Z 22004KT CAVOK 03/M03 Q1010 NOSIG=
202103121900 METAR LKMT 121900Z 22003KT 190V270 CAVOK 03/M02 Q1010 NOSIG=
202103121830 METAR LKMT 121830Z VRB02KT CAVOK 03/M02 Q1011 NOSIG=
202103121800 METAR LKMT 121800Z 00000KT CAVOK 04/M02 Q1010 NOSIG=
202103121730 METAR LKMT 121730Z 20002KT CAVOK 04/M03 Q1011 NOSIG=
202103121700 METAR LKMT 121700Z 21006KT CAVOK 06/M02 Q1010 NOSIG=
202103121630 METAR LKMT 121630Z 23008KT CAVOK 05/M01 Q1010 NOSIG=
202103121600 METAR LKMT 121600Z 26009KT CAVOK 08/M01 Q1010 NOSIG=
202103121530 METAR LKMT 121530Z 28010KT CAVOK 08/M01 Q1010 NOSIG=
202103121500 METAR LKMT 121500Z 24010KT CAVOK 08/M00 Q1010 NOSIG=
202103121430 METAR LKMT 121430Z 23010KT CAVOK 08/00 Q1010 NOSIG=
202103121400 METAR LKMT 121400Z 24011KT CAVOK 09/M00 Q1010 NOSIG=
202103121330 METAR LKMT 121330Z 25014KT CAVOK 09/M00 Q1010 NOSIG=
202103121300 METAR LKMT 121300Z 25014KT CAVOK 09/M01 Q1010 NOSIG=
202103121230 METAR LKMT 121230Z 26009KT 9999 SCT043 08/00 Q1010 NOSIG=
202103121200 METAR LKMT 121200Z 26010KT 9999 BKN044 08/01 Q1010 NOSIG=
202103121130 METAR LKMT 121130Z 26013G24KT 9999 BKN042 08/00 Q1010 NOSIG=
202103121100 METAR LKMT 121100Z 27013KT 9999 FEW039 BKN044 08/01 Q1010 NOSIG=
202103121030 METAR LKMT 121030Z 25011KT 9999 BKN039 08/01 Q1010 NOSIG=
202103121000 METAR LKMT 121000Z 25013KT 220V280 9999 BKN033 07/02 Q1010 NOSIG=
202103120930 METAR LKMT 120930Z 25013KT 9999 BKN028 07/02 Q1010 NOSIG=
202103120900 METAR LKMT 120900Z 24014KT 9999 BKN026 06/03 Q1009 NOSIG=
202103120830 METAR LKMT 120830Z 24019KT 9999 BKN024 06/03 Q1008 NOSIG=
202103120800 METAR LKMT 120800Z 23023G35KT 9999 BKN021 06/03 Q1008 NOSIG=
202103120752 SPECI LKMT 120752Z 23023G34KT 9999 -SHRA FEW012 BKN022 06/03 Q1007 RMK REG QNH 1003=
202103120730 METAR LKMT 120730Z 23016KT 9999 FEW034 BKN046 07/04 Q1007 TEMPO 4000 SHRA=
202103120700 METAR LKMT 120700Z 24011KT 9999 SCT031 BKN040 07/03 Q1006 TEMPO 4000 SHRA=
202103120630 METAR LKMT 120630Z 23017KT 9999 BKN047 06/03 Q1006 NOSIG=
202103120600 METAR LKMT 120600Z 22016KT 9999 BKN047 06/04 Q1005 NOSIG=
202103120530 METAR LKMT 120530Z 22015KT 9999 BKN034 05/04 Q1005 NOSIG=
202103120500 METAR LKMT 120500Z 24007KT 200V290 9999 SCT012 05/04 Q1004 NOSIG=
202103120430 METAR LKMT 120430Z 23010KT CAVOK 05/04 Q1004 NOSIG=
202103120400 METAR LKMT 120400Z 23017KT CAVOK 05/04 Q1003 NOSIG=
202103120330 METAR LKMT 120330Z 23013KT CAVOK 05/04 Q1004 NOSIG=
202103120300 METAR LKMT 120300Z 23014KT CAVOK 05/04 Q1003 NOSIG=
202103120230 METAR LKMT 120230Z 22009KT 9999 FEW012 BKN028 05/04 Q1004 NOSIG=
202103120200 METAR LKMT 120200Z 20005KT 160V290 9999 FEW014 05/03 Q1004 NOSIG=
202103120130 METAR LKMT 120130Z 22008KT 9999 BKN019 04/03 Q1004 NOSIG=
202103120100 METAR LKMT 120100Z 24015KT 9999 -RA BKN023 05/03 Q1004 NOSIG=
202103120030 METAR LKMT 120030Z 22019KT 9999 -RA FEW019 05/02 Q1003 NOSIG=
202103120000 METAR LKMT 120000Z 22018KT 9999 -RA FEW008 05/03 Q1003 NOSIG=
202103112330 METAR LKMT 112330Z 21018KT 9999 -RA FEW013 BKN036 05/03 Q1003 NOSIG=
202103112300 METAR LKMT 112300Z 20020KT 9999 -RA FEW014 06/03 Q1002 NOSIG=
202103112230 METAR LKMT 112230Z 19018KT 9999 -RA SCT012 06/03 Q1002 NOSIG=
202103112205 SPECI LKMT 112205Z 19019G30KT 9999 -RA FEW010 06/02 Q1003 RMK REG QNH 1000=
202103112200 METAR LKMT 112200Z 20020KT 9999 -RA FEW010 06/03 Q1003 NOSIG=
202103112130 METAR LKMT 112130Z 21016KT 180V250 9999 -RA FEW025 06/02 Q1003 NOSIG=
202103112100 METAR LKMT 112100Z 21012KT 9999 -RA FEW027 06/01 Q1003 NOSIG=
202103112030 METAR LKMT 112030Z 22013KT 9999 BKN041 05/01 Q1004 NOSIG=
202103112000 METAR LKMT 112000Z 20009KT 9999 BKN041 06/01 Q1005 NOSIG=
202103111930 METAR LKMT 111930Z 20016KT 9999 BKN040 06/01 Q1005 NOSIG=
202103111900 METAR LKMT 111900Z 21016KT 180V240 9999 SCT047 05/00 Q1006 NOSIG=
202103111830 METAR LKMT 111830Z 20014KT 9999 BKN043 05/00 Q1006 NOSIG=
202103111800 METAR LKMT 111800Z 20017G28KT 9999 OVC048 05/00 Q1006 NOSIG=
202103111730 METAR LKMT 111730Z 20013G23KT 9999 SCT036 BKN047 04/01 Q1007 NOSIG=
202103111704 SPECI LKMT 111704Z 19021G31KT 160V220 9999 -RA FEW018 BKN036 04/01 Q1004 RMK REG QNH 0998=
202103111700 METAR LKMT 111700Z 20020G35KT 9999 -RA SCT026 05/01 Q1006 NOSIG=
202103111652 SPECI LKMT 111652Z 20019G31KT 9999 -RA FEW027 SCT045 05/01 Q1006 RMK REG QNH 0998=
202103111630 METAR LKMT 111630Z 21017KT 9999 -RA FEW015 04/00 Q1007 TEMPO 21020G32KT=
202103111600 METAR LKMT 111600Z 21022G32KT 9999 -RA FEW020 05/M01 Q1007 NOSIG=
202103111530 METAR LKMT 111530Z 21022G32KT 9999 -RA SCT020 05/M02 Q1006 NOSIG=
202103111518 SPECI LKMT 111518Z 21025G36KT 9999 SCT045 05/M02 Q1007 RMK REG QNH 0998=
202103111500 METAR LKMT 111500Z 19016G28KT 9999 FEW033 05/M02 Q1007 NOSIG=
202103111446 SPECI LKMT 111446Z 19019G30KT 9999 FEW040 05/M02 Q1007 RMK REG QNH 0999=
202103111430 METAR LKMT 111430Z 20016KT 9999 FEW040 05/M02 Q1007 TEMPO 20018G28KT=
202103111400 METAR LKMT 111400Z 20021KT 9999 SCT040 04/M02 Q1008 NOSIG=
202103111330 METAR LKMT 111330Z 20016G26KT 9999 SCT033 04/M03 Q1009 NOSIG=
202103111300 METAR LKMT 111300Z 21019G30KT 9999 BKN033 04/M04 Q1010 NOSIG=
202103111230 METAR LKMT 111230Z 21018G28KT 9999 FEW040 05/M05 Q1010 NOSIG=
202103111200 METAR LKMT 111200Z 19014KT 9999 SCT040 05/M06 Q1010 NOSIG=
202103111130 METAR LKMT 111130Z 21014KT 170V230 9999 BKN046 04/M06 Q1011 TEMPO 21016G28KT=
202103111100 METAR LKMT 111100Z 20012KT 170V230 9999 BKN043 05/M06 Q1011 TEMPO 21016G28KT=
202103111030 METAR LKMT 111030Z 19011KT CAVOK 05/M07 Q1012 TEMPO 21016G28KT=
202103111000 METAR LKMT 111000Z 20015KT CAVOK 04/M07 Q1012 TEMPO 21016G28KT=
202103110930 METAR LKMT 110930Z 20011KT 170V230 CAVOK 04/M08 Q1013 TEMPO 22016G28KT=
202103110900 METAR LKMT 110900Z 22014KT CAVOK 03/M08 Q1013 TEMPO 22016G28KT=
202103110830 METAR LKMT 110830Z 22013KT CAVOK 03/M06 Q1014 TEMPO 22016G28KT=
202103110800 METAR LKMT 110800Z 23010KT CAVOK 02/M06 Q1014 TEMPO 23014G28KT=
202103110730 METAR LKMT 110730Z 23009KT CAVOK 01/M05 Q1015 TEMPO 23014G28KT=
202103110700 METAR LKMT 110700Z 23006KT CAVOK M01/M05 Q1015 NOSIG=
202103110630 METAR LKMT 110630Z 23003KT CAVOK M03/M06 Q1015 NOSIG=
202103110600 METAR LKMT 110600Z 23005KT CAVOK M04/M07 Q1015 NOSIG=
202103110530 METAR LKMT 110530Z 19004KT CAVOK M04/M08 Q1016 NOSIG=
202103110500 METAR LKMT 110500Z 20003KT 160V230 CAVOK M05/M08 Q1016 NOSIG=
202103110430 METAR LKMT 110430Z 20004KT CAVOK M06/M09 Q1016 NOSIG=
202103110400 METAR LKMT 110400Z 19004KT CAVOK M05/M09 Q1017 NOSIG=
202103110330 METAR LKMT 110330Z 15002KT CAVOK M05/M09 Q1017 NOSIG=
202103110300 METAR LKMT 110300Z 17002KT CAVOK M04/M09 Q1017 NOSIG=
202103110230 METAR LKMT 110230Z 22003KT 180V240 CAVOK M05/M09 Q1018 NOSIG=
202103110200 METAR LKMT 110200Z VRB02KT CAVOK M04/M09 Q1018 NOSIG=
202103110130 METAR LKMT 110130Z VRB01KT CAVOK M05/M08 Q1019 NOSIG=
202103110100 METAR LKMT 110100Z VRB01KT CAVOK M05/M07 Q1019 NOSIG=
202103110030 METAR LKMT 110030Z VRB02KT CAVOK M04/M08 Q1019 NOSIG=
202103110000 METAR LKMT 110000Z VRB02KT CAVOK M04/M08 Q1019 NOSIG=
202103102330 METAR LKMT 102330Z VRB02KT CAVOK M04/M07 Q1019 NOSIG=
202103102300 METAR LKMT 102300Z VRB02KT CAVOK M03/M07 Q1019 NOSIG=
202103102230 METAR LKMT 102230Z 20004KT CAVOK M03/M07 Q1019 NOSIG=
202103102200 METAR LKMT 102200Z VRB01KT CAVOK M03/M07 Q1020 NOSIG=
202103102130 METAR LKMT 102130Z VRB01KT CAVOK M03/M07 Q1020 NOSIG=
202103102100 METAR LKMT 102100Z VRB01KT CAVOK M03/M07 Q1020 NOSIG=
202103102030 METAR LKMT 102030Z 02002KT CAVOK M02/M07 Q1020 NOSIG=
202103102000 METAR LKMT 102000Z 00000KT CAVOK M02/M07 Q1020 NOSIG=
202103101930 METAR LKMT 101930Z 00000KT CAVOK M01/M08 Q1020 NOSIG=
202103101900 METAR LKMT 101900Z 15003KT CAVOK M01/M08 Q1020 NOSIG=
202103101830 METAR LKMT 101830Z 14004KT CAVOK 00/M09 Q1020 NOSIG=
202103101800 METAR LKMT 101800Z 13004KT CAVOK 00/M09 Q1020 NOSIG=
202103101730 METAR LKMT 101730Z 09005KT CAVOK 01/M10 Q1020 NOSIG=
202103101700 METAR LKMT 101700Z 07005KT CAVOK 01/M10 Q1020 NOSIG=
202103101630 METAR LKMT 101630Z 08006KT CAVOK 02/M10 Q1019 NOSIG=
202103101600 METAR LKMT 101600Z 09008KT CAVOK 03/M10 Q1019 NOSIG=
202103101530 METAR LKMT 101530Z 10008KT 070V130 CAVOK 04/M11 Q1019 NOSIG=
202103101500 METAR LKMT 101500Z 05008KT CAVOK 04/M11 Q1019 NOSIG=
202103101430 METAR LKMT 101430Z 06007KT 010V090 CAVOK 04/M11 Q1019 NOSIG=
202103101400 METAR LKMT 101400Z 03008KT CAVOK 04/M11 Q1019 NOSIG=
202103101330 METAR LKMT 101330Z 04007KT 350V070 CAVOK 04/M12 Q1019 NOSIG=
202103101300 METAR LKMT 101300Z 02008KT 340V060 CAVOK 05/M11 Q1019 NOSIG=
202103101230 METAR LKMT 101230Z 01005KT 310V070 CAVOK 04/M11 Q1019 NOSIG=
202103101200 METAR LKMT 101200Z 04007KT 350V090 CAVOK 04/M11 Q1019 NOSIG=
202103101130 METAR LKMT 101130Z 06004KT 010V120 CAVOK 04/M10 Q1020 NOSIG=
202103101100 METAR LKMT 101100Z 07004KT 030V150 CAVOK 03/M11 Q1020 NOSIG=
202103101030 METAR LKMT 101030Z 03006KT 350V060 9999 FEW033 03/M09 Q1020 NOSIG=
202103101000 METAR LKMT 101000Z 03004KT 330V110 8000 FEW033 03/M07 Q1020 NOSIG=
202103100930 METAR LKMT 100930Z 01004KT 350V070 5000 HZ NSC 02/M05 Q1020 BECMG 6000 NSW=
202103100920 SPECI LKMT 100920Z 01004KT 340V070 5000 HZ NSC 02/M05 Q1020 RMK REG QNH 1014=
202103100900 METAR LKMT 100900Z 02003KT 330V080 4500 BR NSC 00/M04 Q1020 BECMG 6000 NSW=
202103100830 METAR LKMT 100830Z 01004KT 340V040 4000 BR NSC M01/M04 Q1020 NOSIG=
202103100800 METAR LKMT 100800Z 03003KT 330V090 4000 BR NSC M01/M04 Q1020 NOSIG=
202103100748 SPECI LKMT 100748Z 01003KT 330V090 4000 BR NSC M01/M04 Q1020 RMK REG QNH 1015=
202103100730 METAR LKMT 100730Z VRB02KT 5000 BR NSC M02/M04 Q1020 BECMG 6000 NSW=
202103100700 METAR LKMT 100700Z VRB01KT 5000 BR NSC M03/M05 Q1020 BECMG 6000 NSW=
202103100630 METAR LKMT 100630Z 00000KT 5000 BR NSC M03/M05 Q1019 BECMG 6000 NSW=
202103100600 METAR LKMT 100600Z 00000KT 4000 BR NSC M06/M07 Q1019 BECMG 6000 NSW=
202103100530 METAR LKMT 100530Z VRB01KT 4000 BR NSC M06/M07 Q1019 BECMG 6000 NSW=
202103100500 METAR LKMT 100500Z 12003KT 4000 BR NSC M06/M07 Q1019 NOSIG=
202103100430 METAR LKMT 100430Z 00000KT 6000 NSC M05/M07 Q1019 TEMPO 4000 BR=
202103100400 METAR LKMT 100400Z 00000KT 7000 NSC M05/M06 Q1018 TEMPO 4000 BR=
202103100330 METAR LKMT 100330Z 00000KT CAVOK M04/M06 Q1018 NOSIG=
202103100300 METAR LKMT 100300Z 15001KT CAVOK M04/M06 Q1018 NOSIG=
202103100230 METAR LKMT 100230Z 00000KT CAVOK M04/M06 Q1018 NOSIG=
202103100200 METAR LKMT 100200Z VRB01KT CAVOK M04/M06 Q1019 NOSIG=
202103100130 METAR LKMT 100130Z 00000KT CAVOK M04/M06 Q1019 NOSIG=
202103100100 METAR LKMT 100100Z 00000KT CAVOK M04/M06 Q1019 NOSIG=
202103100030 METAR LKMT 100030Z 23002KT CAVOK M04/M06 Q1019 NOSIG=
202103100000 METAR LKMT 100000Z 00000KT CAVOK M04/M06 Q1019 NOSIG=
